{"fetched_at": "2026-05-06T14:56:24.481592+00:00", "line1": "1 44910U 19097A   26126.11989140  .00000145  00000+0  00000+0 0  9992", "line2": "2 44910   4.8123  75.5654 0011736  50.0366 186.2860  1.00270498 23274"}
{"fetched_at": "2026-05-08T01:13:34.291871+00:00", "line1": "1 44910U 19097A   26127.55443456  .00000145  00000+0  00000+0 0  9996", "line2": "2 44910   4.8157  75.5480 0011804  50.4012 343.7827  1.00271066 23293"}
{"fetched_at": "2026-05-20T19:18:52.788223+00:00", "line1": "1 44910U 19097A   26140.03155480  .00000131  00000+0  00000+0 0  9996", "line2": "2 44910   4.8492  75.3973 0012153  53.1967 165.2684  1.00275820 23411"}
{"fetched_at": "2026-05-22T01:06:16.924950+00:00", "line1": "1 44910U 19097A   26140.53062919  .00000130  00000+0  00000+0 0  9994", "line2": "2 44910   4.8506  75.3915 0012166  53.1695 345.4675  1.00276076 23422"}
{"fetched_at": "2026-05-25T17:27:17.741969+00:00", "line1": "1 44910U 19097A   26145.02222884  .00000134  00000+0  00000+0 0  9996", "line2": "2 44910   4.8624  75.3422 0013052  50.1648 169.8830  1.00268272 23460"}
{"fetched_at": "2026-06-01T18:53:17.780066+00:00", "line1": "1 44910U 19097A   26152.01919765  .00000146  00000+0  00000+0 0  9997", "line2": "2 44910   4.8785  75.2599 0013609  50.6367 175.2609  1.00272131 23535"}
{"fetched_at": "2026-06-03T15:44:13.367581+00:00", "line1": "1 44910U 19097A   26154.00540640  .00000146  00000+0  00000+0 0  9990", "line2": "2 44910   4.8830  75.2359 0013711  51.1385 171.7817  1.00273006 23556"}
{"fetched_at": "2026-06-04T17:16:33.355866+00:00", "line1": "1 44910U 19097A   26155.10530963  .00000146  00000+0  00000+0 0  9999", "line2": "2 44910   4.8855  75.2228 0013759  51.4947 208.4936  1.00273442 23562"}
